ISS OBJECT YE           
1 67688U 98067YE  26061.50874384  .00050750  00000+0  83946-3 0  9998
2 67688  51.6317 107.4591 0007639 126.6437 233.5256 15.51667522  3594
CREW DRAGON 12          
1 67796U 26031A   26061.93054996  .00009325  00000+0  18075-3 0  9999
2 67796  51.6319 105.7724 0008215 150.8374 209.3075 15.48408287555022
