[{"OBJECT_NAME":"ISS OBJECT YE","OBJECT_ID":"1998-067YE","EPOCH":"2026-03-02T12:12:35.467776","MEAN_MOTION":15.51667522,"ECCENTRICITY":0.00076399,"INCLINATION":51.6317,"RA_OF_ASC_NODE":107.4591,"ARG_OF_PERICENTER":126.6437,"MEAN_ANOMALY":233.5256,"EPHEMERIS_TYPE":0,"CLASSIFICATION_TYPE":"U","NORAD_CAT_ID":67688,"ELEMENT_SET_NO":999,"REV_AT_EPOCH":359,"BSTAR":0.00083945719,"MEAN_MOTION_DOT":0.0005075,"MEAN_MOTION_DDOT":0},{"OBJECT_NAME":"CREW DRAGON 12","OBJECT_ID":"2026-031A","EPOCH":"2026-03-02T22:19:59.516544","MEAN_MOTION":15.48408287,"ECCENTRICITY":0.00082151,"INCLINATION":51.6319,"RA_OF_ASC_NODE":105.7724,"ARG_OF_PERICENTER":150.8374,"MEAN_ANOMALY":209.3075,"EPHEMERIS_TYPE":0,"CLASSIFICATION_TYPE":"U","NORAD_CAT_ID":67796,"ELEMENT_SET_NO":999,"REV_AT_EPOCH":55502,"BSTAR":0.00018074912,"MEAN_MOTION_DOT":9.325e-5,"MEAN_MOTION_DDOT":0}]
